OBJECT_NAME,OBJECT_ID,EPOCH,MEAN_MOTION,ECCENTRICITY,INCLINATION,RA_OF_ASC_NODE,ARG_OF_PERICENTER,MEAN_ANOMALY,EPHEMERIS_TYPE,CLASSIFICATION_TYPE,NORAD_CAT_ID,ELEMENT_SET_NO,REV_AT_EPOCH,BSTAR,MEAN_MOTION_DOT,MEAN_MOTION_DDOT,RMS,DATA_SOURCE
STARLINK-1007,2019-074A,2023-06-05T03:34:41.999808,15.06403948,.0001185,53.0548,34.1312,91.5241,64.0048,0,C,44713,156,1,.20225E-2,.30214E-3,0,0.244,SpaceX-E
STARLINK-1008,2019-074B,2023-06-05T03:05:41.999712,15.06403150,.0001157,53.0543,34.2271,86.2703,74.8583,0,C,44714,156,1,.19171E-2,.28639E-3,0,0.246,SpaceX-E
STARLINK-1009,2019-074C,2023-06-05T04:25:42.000096,15.06412380,.0001077,53.0547,33.9778,88.6157,73.9572,0,C,44715,156,1,.18574E-2,.27752E-3,0,0.249,SpaceX-E
STARLINK-1010,2019-074D,2023-06-05T03:19:42.000384,15.06404480,.0001093,53.0540,34.1836,86.5684,87.3049,0,C,44716,156,1,.19417E-2,.29007E-3,0,0.244,SpaceX-E
STARLINK-1011,2019-074E,2023-06-05T04:42:41.999616,15.06396808,.0001181,53.0547,53.9195,110.2703,26.3574,0,C,44717,156,1,.20156E-2,.30105E-3,0,0.245,SpaceX-E
STARLINK-1012,2019-074F,2023-06-05T04:08:41.999712,15.06414428,.000126,53.0554,34.0246,75.3178,83.2181,0,C,44718,156,1,.19663E-2,.29382E-3,0,0.246,SpaceX-E
STARLINK-1013,2019-074G,2023-06-05T04:20:42.000288,15.06406611,.0001145,53.0553,33.9861,85.0824,78.6451,0,C,44719,156,1,.1877E-2,.28041E-3,0,0.248,SpaceX-E
STARLINK-1014,2019-074H,2023-06-05T03:05:41.999712,15.06405010,.0001142,53.0548,34.2110,85.8467,60.4099,0,C,44720,156,1,.19954E-2,.2981E-3,0,0.245,SpaceX-E
STARLINK-1015,2019-074J,2023-06-05T04:33:41.999616,15.06409840,.0001197,53.0551,33.9508,88.0777,84.6396,0,C,44721,156,1,.18133E-2,.27092E-3,0,0.246,SpaceX-E
STARLINK-1017,2019-074L,2023-06-05T03:15:42.000192,15.06397235,.0001092,53.0540,34.1952,110.3579,28.4822,0,C,44723,156,1,.20587E-2,.3075E-3,0,0.244,SpaceX-E
STARLINK-1019,2019-074M,2023-06-05T04:03:41.999904,15.06403920,.0001169,53.0548,34.0470,92.5232,67.1567,0,C,44724,156,1,.19943E-2,.29792E-3,0,0.245,SpaceX-E
STARLINK-1020,2019-074N,2023-06-05T04:15:41.999616,15.06404631,.0001228,53.0549,54.0025,84.2493,90.6442,0,C,44725,156,1,.19667E-2,.29381E-3,0,0.250,SpaceX-E
STARLINK-1021,2019-074P,2023-06-05T03:59:41.999712,15.06409324,.0001109,53.0545,34.0598,74.1795,90.4022,0,C,44726,156,1,.18946E-2,.28306E-3,0,0.244,SpaceX-E
STARLINK-1022,2019-074Q,2023-06-05T03:14:41.999712,15.76730635,.0000724,53.0534,47.9329,98.1304,348.2521,0,C,44727,156,1,-.52966E-4,-.8685E-4,0,0.537,SpaceX-E
STARLINK-1024,2019-074S,2023-06-05T04:08:41.999712,15.46826187,.0008485,53.0209,356.1702,117.3449,277.0121,0,C,44729,156,1,.21261E-2,.109235E-2,0,0.262,SpaceX-E
STARLINK-1026,2019-074U,2023-06-04T19:03:41.999904,15.06397424,.0001382,53.0550,35.7235,81.3723,163.5126,0,C,44731,155,1,.1156E-2,.17261E-3,0,0.248,SpaceX-E
STARLINK-1027,2019-074V,2023-06-05T03:56:42.000000,15.06404399,.0001226,53.0551,54.0628,77.5052,85.7883,0,C,44732,156,1,.19641E-2,.29342E-3,0,0.249,SpaceX-E
STARLINK-1028,2019-074W,2023-06-05T03:53:42.000288,15.06406526,.0000731,53.0548,34.0757,100.2320,61.7331,0,C,44733,156,1,.24496E-2,.36604E-3,0,0.244,SpaceX-E
STARLINK-1029,2019-074X,2023-06-05T04:31:42.000384,15.06440877,.0000619,53.0543,313.9578,90.4182,134.7539,0,C,44734,156,1,-.14954E-2,-.2233E-3,0,0.759,SpaceX-E
STARLINK-1030,2019-074Y,2023-06-05T04:01:41.999808,15.06401217,.0001159,53.0550,54.0518,87.6956,54.4411,0,C,44735,156,1,.20421E-2,.30505E-3,0,0.250,SpaceX-E
STARLINK-1031,2019-074Z,2023-06-05T04:26:41.999712,15.06417747,.0001263,53.0547,53.9693,82.9738,73.3014,0,C,44736,156,1,.19604E-2,.29298E-3,0,0.246,SpaceX-E
STARLINK-1032,2019-074AA,2023-06-05T04:41:42.000000,15.06396870,.0001064,53.0544,53.9238,110.0816,42.7926,0,C,44737,156,1,.19806E-2,.29582E-3,0,0.244,SpaceX-E
STARLINK-1033,2019-074AB,2023-06-04T19:35:41.999712,15.68910881,.0000805,53.0554,44.1603,96.3580,319.3764,0,C,44738,155,1,.38596E-2,.46207E-2,0,0.394,SpaceX-E
STARLINK-1035,2019-074AD,2023-06-05T04:33:41.999616,15.06396629,.000083,53.0544,53.9480,115.3849,27.3461,0,C,44740,156,1,.19701E-2,.29425E-3,0,0.245,SpaceX-E
STARLINK-1036,2019-074AE,2023-06-05T04:27:42.000192,15.06394232,.0001107,53.0546,53.9663,104.3867,315.7301,0,C,44741,156,1,.20372E-2,.30426E-3,0,0.245,SpaceX-E
STARLINK-1038,2019-074AG,2023-06-05T04:32:42.000000,15.06392739,.0001245,53.0545,73.9487,110.8989,58.0759,0,C,44743,156,1,.19449E-2,.29046E-3,0,0.242,SpaceX-E
STARLINK-1039,2019-074AH,2023-06-05T04:26:41.999712,15.06403178,.0000944,53.0547,73.9684,86.9190,359.4307,0,C,44744,156,1,.19985E-2,.29855E-3,0,0.242,SpaceX-E
STARLINK-1041,2019-074AK,2023-06-05T04:22:42.000384,15.06392639,.0001111,53.0543,73.9803,100.3885,50.9142,0,C,44746,156,1,.1889E-2,.2821E-3,0,0.242,SpaceX-E
STARLINK-1042,2019-074AL,2023-06-05T04:43:42.000096,15.06408256,.0001125,53.0550,73.9173,85.8769,344.5244,0,C,44747,156,1,.20361E-2,.30422E-3,0,0.246,SpaceX-E
STARLINK-1043,2019-074AM,2023-06-05T04:12:41.999904,15.06399347,.0001358,53.0543,74.0119,89.2458,64.3463,0,C,44748,156,1,.18285E-2,.2731E-3,0,0.244,SpaceX-E
STARLINK-1046,2019-074AQ,2023-06-05T04:35:41.999712,15.06399865,.0000811,53.0547,73.9396,90.4239,69.8413,0,C,44751,156,1,.19183E-2,.28654E-3,0,0.242,SpaceX-E
STARLINK-1047,2019-074AR,2023-06-05T04:36:42.000192,15.06404804,.0001092,53.0544,53.9402,79.6526,334.3670,0,C,44752,156,1,.20033E-2,.29928E-3,0,0.245,SpaceX-E
STARLINK-1048,2019-074AS,2023-06-05T03:37:42.000384,15.06409230,.0001212,53.0549,34.1219,81.3074,80.3825,0,C,44753,156,1,.20356E-2,.30416E-3,0,0.244,SpaceX-E
STARLINK-1049,2019-074AT,2023-06-05T01:39:41.999904,15.76699354,.0000906,53.0503,8.1988,68.9280,281.7190,0,C,44754,156,1,.16622E-3,.27262E-3,0,0.449,SpaceX-E
STARLINK-1052,2019-074AW,2023-06-05T04:38:42.000288,15.06401134,.0001107,53.0550,53.9315,80.9389,280.6282,0,C,44757,156,1,.20168E-2,.30128E-3,0,0.247,SpaceX-E
STARLINK-1053,2019-074AX,2023-06-05T04:01:41.999808,15.06409223,.0001204,53.0544,74.1368,106.2330,25.8669,0,C,44758,156,1,.23583E-2,.35241E-3,0,0.285,SpaceX-E
STARLINK-1054,2019-074AY,2023-06-05T04:36:42.000192,15.06405696,.0001067,53.0554,73.9375,81.7599,282.2556,0,C,44759,156,1,.19654E-2,.29362E-3,0,0.250,SpaceX-E
STARLINK-1055,2019-074AZ,2023-06-05T04:54:42.000192,15.16213516,.0004199,53.0545,68.4881,81.2931,337.3969,0,C,44760,156,1,.21688E-2,.42561E-3,0,0.253,SpaceX-E
STARLINK-1056,2019-074BA,2023-06-05T04:29:42.000288,15.06408266,.0001163,53.0552,73.9607,84.9270,272.7308,0,C,44761,156,1,.19504E-2,.2914E-3,0,0.249,SpaceX-E
STARLINK-1057,2019-074BB,2023-06-05T04:32:42.000000,15.06403690,.0001154,53.0550,53.9515,85.4017,273.5623,0,C,44762,156,1,.20286E-2,.30305E-3,0,0.246,SpaceX-E
STARLINK-1058,2019-074BC,2023-06-05T03:59:41.999712,15.06401658,.0001245,53.0548,74.0467,87.1051,42.6437,0,C,44763,156,1,.19048E-2,.28454E-3,0,0.246,SpaceX-E
STARLINK-1059,2019-074BD,2023-06-05T04:51:41.999616,15.21919876,.0005445,53.0707,37.7061,69.2882,158.3747,0,C,44764,156,1,.51634E-3,.11945E-3,0,0.250,SpaceX-E
STARLINK-1060,2019-074BE,2023-06-05T04:02:42.000288,15.06407287,.0001179,53.0551,54.0491,81.4728,84.4246,0,C,44765,156,1,.20238E-2,.30237E-3,0,0.250,SpaceX-E
STARLINK-1061,2019-074BF,2023-06-05T04:42:41.999616,15.06400441,.0001112,53.0552,73.9214,88.4532,238.1896,0,C,44766,156,1,.18735E-2,.27984E-3,0,0.249,SpaceX-E
STARLINK-1062,2019-074BG,2023-06-05T04:40:42.000384,15.06402867,.0001122,53.0558,73.9139,100.5309,263.7046,0,C,44767,156,1,.23672E-2,.35368E-3,0,0.251,SpaceX-E
STARLINK-1063,2019-074BH,2023-06-05T04:12:41.999904,15.06406555,.0001501,53.0539,74.0151,96.8824,36.6828,0,C,44768,156,1,.18664E-2,.27883E-3,0,0.242,SpaceX-E
STARLINK-1067,2019-074BL,2023-06-05T04:39:41.999904,15.06390733,.0001228,53.0548,73.9288,96.3902,198.9719,0,C,44771,156,1,.18579E-2,.27744E-3,0,0.248,SpaceX-E
STARLINK-1068,2019-074BM,2023-06-05T04:43:42.000096,15.06411476,.0001103,53.0551,53.9210,81.7428,278.6432,0,C,44772,156,1,.19776E-2,.2955E-3,0,0.249,SpaceX-E
STARLINK-1073,2020-001A,2023-06-05T04:31:42.000384,15.06400001,.0000685,53.0514,193.9528,85.3250,139.8895,0,C,44914,156,1,.16467E-3,.2458E-4,0,0.252,SpaceX-E
STARLINK-1084,2020-001B,2023-06-05T04:28:41.999808,15.06398879,.0000925,53.0520,193.9659,78.8930,335.0183,0,C,44915,156,1,.26923E-3,.4019E-4,0,0.254,SpaceX-E
STARLINK-1098,2020-001D,2023-06-05T04:33:41.999616,15.06401732,.0001052,53.0516,193.9510,76.9490,335.8148,0,C,44917,156,1,.27771E-3,.4146E-4,0,0.253,SpaceX-E
STARLINK-1099,2020-001E,2023-06-05T04:30:41.999904,15.06408733,.0001048,53.0523,193.9866,73.7736,252.7669,0,C,44918,156,1,.21515E-3,.3212E-4,0,0.248,SpaceX-E
STARLINK-1102,2020-001G,2023-06-05T04:26:41.999712,15.20377215,.0002358,53.0561,184.4415,349.2818,138.3079,0,C,44920,156,1,.28664E-4,.633E-5,0,0.256,SpaceX-E
STARLINK-1103,2020-001H,2023-06-05T04:08:41.999712,15.06401224,.000087,53.0519,194.0194,70.1955,353.4936,0,C,44921,156,1,.25494E-3,.3806E-4,0,0.255,SpaceX-E
STARLINK-1104,2020-001J,2023-06-05T04:35:41.999712,15.06409623,.0001095,53.0522,193.9414,64.7154,275.5623,0,C,44922,156,1,.22399E-3,.3344E-4,0,0.248,SpaceX-E
STARLINK-1106,2020-001K,2023-06-05T04:58:42.000384,15.14566365,.0003304,53.0515,189.6859,44.6865,255.9173,0,C,44923,156,1,.31026E-3,.5804E-4,0,0.256,SpaceX-E
STARLINK-1111,2020-001L,2023-06-05T04:23:42.000000,15.06409168,.0000953,53.0521,194.0043,66.0825,148.9591,0,C,44924,156,1,.1662E-3,.2481E-4,0,0.251,SpaceX-E
STARLINK-1112,2020-001M,2023-06-05T04:06:41.999616,15.06388919,.0000863,53.0515,194.0347,82.6036,348.4010,0,C,44925,156,1,.22159E-3,.3307E-4,0,0.255,SpaceX-E
STARLINK-1113,2020-001N,2023-06-05T03:57:41.999616,15.06399537,.0000972,53.0534,194.1513,88.4196,328.6228,0,C,44926,156,1,.21723E-3,.3242E-4,0,0.254,SpaceX-E
STARLINK-1114,2020-001P,2023-06-05T04:15:41.999616,15.06414038,.0000805,53.0509,194.0063,79.5926,325.2852,0,C,44927,156,1,.27012E-3,.4034E-4,0,0.255,SpaceX-E
STARLINK-1119,2020-001Q,2023-06-05T04:09:42.000192,15.06391461,.0001033,53.0517,194.0205,74.3829,327.8754,0,C,44928,156,1,.29602E-3,.4418E-4,0,0.255,SpaceX-E
